ONEWEB-0528             
1 54643U 22166B   24068.48528550 -.00000923  00000+0 -22659-2 0  9997
2 54643  87.9240  49.3117 0001830  80.3110 279.8231 13.21828522 61805
ONEWEB-0539             
1 54644U 22166C   24068.90005089 -.00000118  00000+0 -31698-3 0  9992
2 54644  87.9243  49.2306 0002051  84.8446 275.2922 13.21827743 61851
ONEWEB-0540             
1 54645U 22166D   24068.89453270  .00000037  00000+0  58473-4 0  9999
2 54645  87.9235  49.2558 0002209  82.0420 278.0964 13.21826129 61842
ONEWEB-0542             
1 54646U 22166E   24068.68240807 -.00000020  00000+0 -80012-4 0  9995
2 54646  87.9240  49.2740 0002401  92.1026 268.0383 13.21826287 61827
ONEWEB-0545             
1 54647U 22166F   24068.49791505  .00000083  00000+0  17005-3 0  9999
2 54647  87.9231  49.3415 0002471  83.2614 276.8801 13.21826137 61768
ONEWEB-0580             
1 54648U 22166G   24068.47110363 -.00000004  00000+0 -41134-4 0  9991
2 54648  87.9238  49.3080 0002454  92.9554 267.1861 13.21826331 61805
ONEWEB-0582             
1 54649U 22166H   24068.66507412  .00000085  00000+0  17488-3 0  9999
2 54649  87.9236  49.3100 0002173  77.7991 282.3386 13.21826327 61807
ONEWEB-0583             
1 54650U 22166J   24068.44901889  .00000101  00000+0  21262-3 0  9997
2 54650  87.9234  49.3551 0001597  77.5446 282.5867 13.21826806 61784
